[{"OBJECT_NAME":"NUSAT-48 (HENRIETTA LEAVITT)","OBJECT_ID":"2024-149AG","EPOCH":"2026-03-09T19:19:17.269536","MEAN_MOTION":15.29812597,"ECCENTRICITY":0.00027538,"INCLINATION":97.3923,"RA_OF_ASC_NODE":150.8264,"ARG_OF_PERICENTER":263.3026,"MEAN_ANOMALY":96.7901,"EPHEMERIS_TYPE":0,"CLASSIFICATION_TYPE":"U","NORAD_CAT_ID":60498,"ELEMENT_SET_NO":999,"REV_AT_EPOCH":8694,"BSTAR":0.00045211745,"MEAN_MOTION_DOT":0.00012988,"MEAN_MOTION_DDOT":0},{"OBJECT_NAME":"STARLINK-35332","OBJECT_ID":"2025-224F","EPOCH":"2026-03-09T23:32:12.787584","MEAN_MOTION":15.30215691,"ECCENTRICITY":0.000217,"INCLINATION":53.1598,"RA_OF_ASC_NODE":9.6526,"ARG_OF_PERICENTER":132.5505,"MEAN_ANOMALY":227.5679,"EPHEMERIS_TYPE":0,"CLASSIFICATION_TYPE":"U","NORAD_CAT_ID":65887,"ELEMENT_SET_NO":999,"REV_AT_EPOCH":2490,"BSTAR":0.0011079627,"MEAN_MOTION_DOT":0.00032616,"MEAN_MOTION_DDOT":0}]
